COSMOS 2361             
1 25590U 98076A   24154.18238701  .00000066  00000+0  54788-4 0  9994
2 25590  82.9361  37.0729 0032039  21.2048  94.5825 13.73118826274752
COSMOS 2378             
1 26818U 01023A   24153.23290912  .00000060  00000+0  48417-4 0  9997
2 26818  82.9287  54.4800 0032278 327.1461 144.8791 13.74049688152462
COSMOS 2389             
1 27436U 02026A   24154.11334208  .00000086  00000+0  73061-4 0  9994
2 27436  82.9514   0.4281 0046413 177.2032 299.1254 13.75064175104778
COSMOS 2398             
1 27818U 03023A   24153.56968709  .00000092  00000+0  83756-4 0  9992
2 27818  82.9473 324.7363 0030393 224.1968 200.5832 13.72295875 51453
COSMOS 2407             
1 28380U 04028A   24153.82364269  .00000079  00000+0  65463-4 0  9993
2 28380  82.9605 266.7714 0039421 175.0958 297.6542 13.76211884997540
COSMOS 2414             
1 28521U 05002A   24153.79378925  .00000080  00000+0  54368-4 0  9997
2 28521  82.9506 247.3590 0038903 295.6528  64.0619 13.87775521980751
COSMOS 2429             
1 32052U 07038A   24153.75785482  .00000076  00000+0  63063-4 0  9995
2 32052  82.9824  35.2592 0038900 155.1946 205.1092 13.75054107839297
COSMOS 2454             
1 35635U 09039A   24153.61228666  .00000082  00000+0  53678-4 0  9997
2 35635  82.9575 232.5151 0018143 229.7580 239.9248 13.89804063753834
COSMOS 2463             
1 36519U 10017A   24153.31432115  .00000074  00000+0  65378-4 0  9991
2 36519  82.9612  77.7158 0037200  41.3078  73.6572 13.71560319705686
